{"type": "FeatureCollection", "features": [ {"type": "Feature", "properties": {"norad_id": 30358, "name": "FENGYUN 1C DEB", "group": "fengyun-1c-debris", "lat": 23.127111222293173, "lon": -178.39934022687757, "alt_km": 872.5623716004757, "timestamp": "2025-12-22T11:33:20.715181+00:00", "meta": {"OBJECT_NAME": "FENGYUN 1C DEB", "OBJECT_ID": "1999-025ABV", "EPOCH": "2025-12-21T12:02:22.834752", "MEAN_MOTION": 14.20725773, "ECCENTRICITY": 0.00825654, "INCLINATION": 98.5541, "RA_OF_ASC_NODE": 184.338, "ARG_OF_PERICENTER": 174.1291, "MEAN_ANOMALY": 241.2288, "EPHEMERIS_TYPE": 0, "CLASSIFICATION_TYPE": "U", "NORAD_CAT_ID": 30358, "ELEMENT_SET_NO": 999, "REV_AT_EPOCH": 97042, "BSTAR": 0.0012442738, "MEAN_MOTION_DOT": 2.736e-05, "MEAN_MOTION_DDOT": 0}, "tle": {"line1": "1 30358U 99025ABV 25355.50165318  .00002736  00000+0  12443-2 0  9996", "line2": "2 30358  98.5541 184.3380 0082565 174.1291 241.2288 14.20725773970428"}}, "geometry": {"type": "Point", "coordinates": [-178.39934022687757, 23.127111222293173]}}, {"type": "Feature", "properties": {"norad_id": 30359, "name": "FENGYUN 1C DEB", "group": "fengyun-1c-debris", "lat": -12.116858746752888, "lon": 2.1392311858520614, "alt_km": 980.1693903154037, "timestamp": "2025-12-22T11:33:20.715191+00:00", "meta": {"OBJECT_NAME": "FENGYUN 1C DEB", "OBJECT_ID": "1999-025ABW", "EPOCH": "2025-12-18T08:26:45.407616", "MEAN_MOTION": 13.94038268, "ECCENTRICITY": 0.01455024, "INCLINATION": 101.6263, "RA_OF_ASC_NODE": 179.4894, "ARG_OF_PERICENTER": 328.6442, "MEAN_ANOMALY": 30.6094, "EPHEMERIS_TYPE": 0, "CLASSIFICATION_TYPE": "U", "NORAD_CAT_ID": 30359, "ELEMENT_SET_NO": 999, "REV_AT_EPOCH": 95147, "BSTAR": 0.0022120096, "MEAN_MOTION_DOT": 3.132e-05, "MEAN_MOTION_DDOT": 0}, "tle": {"line1": "1 30359U 99025ABW 25352.35191444  .00003132  00000+0  22120-2 0  9990", "line2": "2 30359 101.6263 179.4894 0145502 328.6442  30.6094 13.94038268951471"}}, "geometry": {"type": "Point", "coordinates": [2.1392311858520614, -12.116858746752888]}}, {"type": "Feature", "properties": {"norad_id": 30360, "name": "FENGYUN 1C DEB", "group": "fengyun-1c-debris", "lat": -77.49817774059582, "lon": -157.9969274864846, "alt_km": 827.8967901745254, "timestamp": "2025-12-22T11:33:20.715201+00:00", "meta": {"OBJECT_NAME": "FENGYUN 1C DEB", "OBJECT_ID": "1999-025ABX", "EPOCH": "2025-12-22T03:51:37.388160", "MEAN_MOTION": 14.26566291, "ECCENTRICITY": 0.0030924, "INCLINATION": 98.7643, "RA_OF_ASC_NODE": 65.7698, "ARG_OF_PERICENTER": 120.4414, "MEAN_ANOMALY": 294.6103, "EPHEMERIS_TYPE": 0, "CLASSIFICATION_TYPE": "U", "NORAD_CAT_ID": 30360, "ELEMENT_SET_NO": 999, "REV_AT_EPOCH": 97559, "BSTAR": 0.0014991, "MEAN_MOTION_DOT": 3.592e-05, "MEAN_MOTION_DDOT": 0}, "tle": {"line1": "1 30360U 99025ABX 25356.16084940  .00003592  00000+0  14991-2 0  9994", "line2": "2 30360  98.7643  65.7698 0030924 120.4414 294.6103 14.26566291975598"}}, "geometry": {"type": "Point", "coordinates": [-157.9969274864846, -77.49817774059582]}}, {"type": "Feature", "properties": {"norad_id": 30361, "name": "FENGYUN 1C DEB", "group": "fengyun-1c-debris", "lat": -39.43379341078962, "lon": 39.30848934583749, "alt_km": 778.8425772875535, "timestamp": "2025-12-22T11:33:20.715212+00:00", "meta": {"OBJECT_NAME": "FENGYUN 1C DEB", "OBJECT_ID": "1999-025ABY", "EPOCH": "2025-12-22T01:37:57.124128", "MEAN_MOTION": 14.25390353, "ECCENTRICITY": 0.0064825, "INCLINATION": 98.5686, "RA_OF_ASC_NODE": 31.7819, "ARG_OF_PERICENTER": 3.2928, "MEAN_ANOMALY": 356.8665, "EPHEMERIS_TYPE": 0, "CLASSIFICATION_TYPE": "U", "NORAD_CAT_ID": 30361, "ELEMENT_SET_NO": 999, "REV_AT_EPOCH": 97749, "BSTAR": 0.00077033, "MEAN_MOTION_DOT": 1.814e-05, "MEAN_MOTION_DDOT": 0}, "tle": {"line1": "1 30361U 99025ABY 25356.06802227  .00001814  00000+0  77033-3 0  9992", "line2": "2 30361  98.5686  31.7819 0064825   3.2928 356.8665 14.25390353977495"}}, "geometry": {"type": "Point", "coordinates": [39.30848934583749, -39.43379341078962]}}, {"type": "Feature", "properties": {"norad_id": 30362, "name": "FENGYUN 1C DEB", "group": "fengyun-1c-debris", "lat": -31.936645578333675, "lon": 93.67152627518412, "alt_km": 875.3739218409692, "timestamp": "2025-12-22T11:33:20.715222+00:00", "meta": {"OBJECT_NAME": "FENGYUN 1C DEB", "OBJECT_ID": "1999-025ABZ", "EPOCH": "2025-12-21T17:32:14.176032", "MEAN_MOTION": 14.11900374, "ECCENTRICITY": 0.0095147, "INCLINATION": 99.0511, "RA_OF_ASC_NODE": 278.6163, "ARG_OF_PERICENTER": 318.8131, "MEAN_ANOMALY": 40.5887, "EPHEMERIS_TYPE": 0, "CLASSIFICATION_TYPE": "U", "NORAD_CAT_ID": 30362, "ELEMENT_SET_NO": 999, "REV_AT_EPOCH": 96295, "BSTAR": 0.0019479, "MEAN_MOTION_DOT": 3.669e-05, "MEAN_MOTION_DDOT": 0}, "tle": {"line1": "1 30362U 99025ABZ 25355.73071963  .00003669  00000+0  19479-2 0  9990", "line2": "2 30362  99.0511 278.6163 0095147 318.8131  40.5887 14.11900374962958"}}, "geometry": {"type": "Point", "coordinates": [93.67152627518412, -31.936645578333675]}}, {"type": "Feature", "properties": {"norad_id": 30363, "name": "FENGYUN 1C DEB", "group": "fengyun-1c-debris", "lat": -74.8229293747403, "lon": 103.66050783103265, "alt_km": 841.4025763645841, "timestamp": "2025-12-22T11:33:20.715232+00:00", "meta": {"OBJECT_NAME": "FENGYUN 1C DEB", "OBJECT_ID": "1999-025ACA", "EPOCH": "2025-12-21T03:43:07.217760", "MEAN_MOTION": 14.16918178, "ECCENTRICITY": 0.0078708, "INCLINATION": 99.0309, "RA_OF_ASC_NODE": 66.4202, "ARG_OF_PERICENTER": 14.8136, "MEAN_ANOMALY": 345.5319, "EPHEMERIS_TYPE": 0, "CLASSIFICATION_TYPE": "U", "NORAD_CAT_ID": 30363, "ELEMENT_SET_NO": 999, "REV_AT_EPOCH": 96943, "BSTAR": 0.00097037605, "MEAN_MOTION_DOT": 1.961e-05, "MEAN_MOTION_DDOT": 0}, "tle": {"line1": "1 30363U 99025ACA 25355.15494465  .00001961  00000+0  97038-3 0  9994", "line2": "2 30363  99.0309  66.4202 0078708  14.8136 345.5319 14.16918178969437"}}, "geometry": {"type": "Point", "coordinates": [103.66050783103265, -74.8229293747403]}}, {"type": "Feature", "properties": {"norad_id": 30364, "name": "FENGYUN 1C DEB", "group": "fengyun-1c-debris", "lat": 56.853182347328776, "lon": -100.63004002074318, "alt_km": 963.6410588126819, "timestamp": "2025-12-22T11:33:20.715242+00:00", "meta": {"OBJECT_NAME": "FENGYUN 1C DEB", "OBJECT_ID": "1999-025ACB", "EPOCH": "2025-12-20T05:48:41.703840", "MEAN_MOTION": 14.17252409, "ECCENTRICITY": 0.0331213, "INCLINATION": 98.1374, "RA_OF_ASC_NODE": 269.9705, "ARG_OF_PERICENTER": 298.5118, "MEAN_ANOMALY": 217.2332, "EPHEMERIS_TYPE": 0, "CLASSIFICATION_TYPE": "U", "NORAD_CAT_ID": 30364, "ELEMENT_SET_NO": 999, "REV_AT_EPOCH": 95747, "BSTAR": 0.0020876, "MEAN_MOTION_DOT": 7.201e-05, "MEAN_MOTION_DDOT": 0}, "tle": {"line1": "1 30364U 99025ACB 25354.24214935  .00007201  00000+0  20876-2 0  9994", "line2": "2 30364  98.1374 269.9705 0331213 298.5118 217.2332 14.17252409957472"}}, "geometry": {"type": "Point", "coordinates": [-100.63004002074318, 56.853182347328776]}}, {"type": "Feature", "properties": {"norad_id": 30365, "name": "FENGYUN 1C DEB", "group": "fengyun-1c-debris", "lat": -41.83563437286867, "lon": -1.5950491104920141, "alt_km": 903.9530942463407, "timestamp": "2025-12-22T11:33:20.715252+00:00", "meta": {"OBJECT_NAME": "FENGYUN 1C DEB", "OBJECT_ID": "1999-025ACC", "EPOCH": "2025-12-21T17:56:31.208352", "MEAN_MOTION": 14.19238351, "ECCENTRICITY": 0.0168071, "INCLINATION": 98.6193, "RA_OF_ASC_NODE": 349.8867, "ARG_OF_PERICENTER": 85.5646, "MEAN_ANOMALY": 86.0773, "EPHEMERIS_TYPE": 0, "CLASSIFICATION_TYPE": "U", "NORAD_CAT_ID": 30365, "ELEMENT_SET_NO": 999, "REV_AT_EPOCH": 97740, "BSTAR": 0.0001719, "MEAN_MOTION_DOT": 3.73e-06, "MEAN_MOTION_DDOT": 0}, "tle": {"line1": "1 30365U 99025ACC 25355.74758343  .00000373  00000+0  17190-3 0  9996", "line2": "2 30365  98.6193 349.8867 0168071  85.5646  86.0773 14.19238351977402"}}, "geometry": {"type": "Point", "coordinates": [-1.5950491104920141, -41.83563437286867]}}, {"type": "Feature", "properties": {"norad_id": 30366, "name": "FENGYUN 1C DEB", "group": "fengyun-1c-debris", "lat": -6.952021371874478, "lon": 93.17223958894824, "alt_km": 739.2910382042764, "timestamp": "2025-12-22T11:33:20.715262+00:00", "meta": {"OBJECT_NAME": "FENGYUN 1C DEB", "OBJECT_ID": "1999-025ACD", "EPOCH": "2025-12-21T18:11:31.841952", "MEAN_MOTION": 14.33509975, "ECCENTRICITY": 0.0062289, "INCLINATION": 98.9241, "RA_OF_ASC_NODE": 273.5244, "ARG_OF_PERICENTER": 192.5437, "MEAN_ANOMALY": 222.9045, "EPHEMERIS_TYPE": 0, "CLASSIFICATION_TYPE": "U", "NORAD_CAT_ID": 30366, "ELEMENT_SET_NO": 999, "REV_AT_EPOCH": 98452, "BSTAR": 0.00035296, "MEAN_MOTION_DOT": 9.5e-06, "MEAN_MOTION_DDOT": 0}, "tle": {"line1": "1 30366U 99025ACD 25355.75800743  .00000950  00000+0  35296-3 0  9998", "line2": "2 30366  98.9241 273.5244 0062289 192.5437 222.9045 14.33509975984526"}}, "geometry": {"type": "Point", "coordinates": [93.17223958894824, -6.952021371874478]}}, {"type": "Feature", "properties": {"norad_id": 30368, "name": "FENGYUN 1C DEB", "group": "fengyun-1c-debris", "lat": -37.317090155133194, "lon": -85.03150909641836, "alt_km": 925.4173147677084, "timestamp": "2025-12-22T11:33:20.715273+00:00", "meta": {"OBJECT_NAME": "FENGYUN 1C DEB", "OBJECT_ID": "1999-025ACF", "EPOCH": "2025-12-21T19:31:40.548864", "MEAN_MOTION": 13.7537438, "ECCENTRICITY": 0.0186231, "INCLINATION": 99.1885, "RA_OF_ASC_NODE": 101.4119, "ARG_OF_PERICENTER": 283.9908, "MEAN_ANOMALY": 230.8351, "EPHEMERIS_TYPE": 0, "CLASSIFICATION_TYPE": "U", "NORAD_CAT_ID": 30368, "ELEMENT_SET_NO": 999, "REV_AT_EPOCH": 94786, "BSTAR": 0.00043647, "MEAN_MOTION_DOT": 4.32e-06, "MEAN_MOTION_DDOT": 0}, "tle": {"line1": "1 30368U 99025ACF 25355.81366376  .00000432  00000+0  43647-3 0  9990", "line2": "2 30368  99.1885 101.4119 0186231 283.9908 230.8351 13.75374380947866"}}, "geometry": {"type": "Point", "coordinates": [-85.03150909641836, -37.317090155133194]}}]}